#dP2021 11 15  0  0  0.00000000      96 __u+U ITR00 FIT  IAC
## 2184  86400.00000000   900.00000000 59533 0.0000000000000
+  126   C02C03C04C05C06C07C08C09C10C11C12C13C14C16C19C20C21
+        C22C23C24C25C26C27C28C29C30C32C33C34C35C36C37C38C39
+        C40C41C42C43C44C45C46C59C60E01E02E03E04E05E07E08E09
+        E11E12E13E14E15E18E19E21E24E25E26E27E30E31E33E36G01
+        G02G03G04G05G06G07G08G09G10G12G13G14G15G16G17G18G19
+        G20G21G22G23G24G25G26G27G28G29G30G31G32J01J02J03J07
+        R01R02R03R04R05R06R07R08R09R10R11R12R13R14R15R16R17
+        R18R19R20R21R22R23R24  0  0  0  0  0  0  0  0  0  0
++         0  0  0  0  0  0  0  0  0  0  0  0  0  0  0  0  0
++         0  0  0  0  0  0  0  0  0  0  0  0  0  0  0  0  0
++         0  0  0  0  0  0  0  0  0  0  0  0  0  0  0  0  0
++         0  0  0  0  0  0  0  0  0  0  0  0  0  0  0  0  0
++         0  0  0  0  0  0  0  0  0  0  0  0  0  0  0  0  0
++         0  0  0  0  0  0  0  0  0  0  0  0  0  0  0  0  0
++         0  0  0  0  0  0  0  0  0  0  0  0  0  0  0  0  0
++         0  0  0  0  0  0  0  0  0  0  0  0  0  0  0  0  0
%c M  cc GPS ccc cccc cccc cccc cccc ccccc ccccc ccccc ccccc
%c cc cc ccc ccc cccc cccc cccc cccc ccccc ccccc ccccc ccccc
%f  0.0000000  0.000000000  0.00000000000  0.000000000000000
%f  0.0000000  0.000000000  0.00000000000  0.000000000000000
%i    0    0    0    0      0      0      0      0         0
%i    0    0    0    0      0      0      0      0         0
/* INFORMATION & ANALYSIS CENTER (IAC)            RAPID DATA
/* S/V CLOCKS ARE ALIGNED TO GNSS TIME                      
/* G:C1WC2W R:C1PC2P E:C1XC5X C:C2IC6I J:C1CC2S             
/* PCV:IGS14_2163 OL/AL:FES2004  NONE     YN ORB:CoN CLK:CoN
*  2021 11 15 18 15  0.00000000
PC02   4337.550530  41910.172390   -552.037408    157.008783
PC03 -14815.774654  39443.266151    277.074787    177.762554
PC04 -39603.763570  14431.493650    574.094490    168.123244
PC05  21833.447645  36044.693297   -940.340823    302.801594
PC06  -3387.141951  25677.215465 -33267.303952    492.149138
PC07 -18158.886728  32911.460038  18997.626091    234.176126
PC08  -4856.907827  40418.077452  11287.811436   -767.388693
PC09   4175.437421  28293.499559 -30516.162228   -269.509461
PC10  -9617.970733  32672.466413  24835.532320     12.423610
PC11 -13482.389548 -19592.205122 -14491.330323    692.417482
PC12   4966.872335 -14768.890448 -23105.992766    723.876374
PC13  -1009.924170  41911.660239   5872.567132    476.128468
PC14  -3514.796905 -16041.752056  22581.369872    534.439031
PC16  -8302.562837  22820.204490 -34327.235530   -721.280667
PC19  13456.776310   9998.377173 -22294.621502    934.912352
PC20  -5005.512289  18783.134185 -20008.961295   -790.669902
PC21  21602.772958 -16781.711613   5564.301868   -936.906582
PC22  24851.410219  -4859.633343 -11757.997599   -969.112590
PC23 -16223.792196  -1351.161635 -22658.740593   -965.475361
PC24   1430.796475 -27808.478128   1552.754323   -961.092509
PC25 -11505.421938 -19974.555274 -15716.646808   -824.268717
PC26  11378.179014 -19575.142232  16279.388870    821.356853
PC27 -14248.452825   9237.990692  22131.477461    629.975151
PC28 -24806.630987  -5878.724236  11346.321874     -2.323006
PC29  21424.936983  16783.651861   6170.079429    474.711952
PC30   4633.710594  18627.812515  20247.592566    486.335418
PC32 -21511.918656  16907.323206  -5477.795744   -961.815479
PC33 -13423.166598 -10033.906051  22308.113312   -972.288144
PC34  -5544.130615 -18882.628812 -19797.715179   -536.205788
PC35  25110.123226   5352.047016 -10903.066689      2.161509
PC36  10825.432820  20610.068300  15419.420513   -804.636843
PC37 -12270.085516  18475.732509 -16935.122391   -891.693244
PC38 -10450.595665  36306.516972  18914.252290    189.714734
PC39 -13143.289088  20437.773169 -34483.076040     34.019981
PC40 -25911.534565  28058.436251  17707.358140    217.991877
PC41 -24745.285499   4586.380719  12109.312035   -916.141433
PC42   5910.747819 -19050.676593  19554.933574   -943.352191
PC43 -20978.534017 -17147.266162  -6722.550421   -960.541485
PC44  14141.422795  -9721.675983 -22005.848931    466.832685
PC45  16116.192869   1135.684994  22758.544008    601.688305
PC46   -553.235527  27922.082854   -344.165116    -10.031385
PC59      0.000000      0.000000      0.000000 999999.999999
PC60   7325.286634  41500.946363   1528.768292     -0.450291
PE01 -20396.778812  11663.325563 -18002.640260   -517.757633
PE02  20396.273079 -11777.676022  17921.064156    260.508010
PE03  28572.209905  -4870.995582   6022.362022   -496.299852
PE04 -15016.535630  14947.767275 -20674.248770   -900.292177
PE05  25574.280039   8244.267126 -12421.433616   -233.727346
PE07  -7726.759194 -16392.546817  23399.399670   -607.381918
PE08  14560.075631 -15007.710644  20946.650045   5904.530033
PE09   8043.071461  16182.842137 -23451.108125   5462.558596
PE11  11069.961682  26574.211135   6873.957731   5077.370554
PE12  -5068.808863  19132.103959  22010.346622   4908.422403
PE13 -10767.156651 -26547.464816  -7431.628246    423.725437
PE14 -19587.440016 -15083.808488 -13327.429688  -1641.349048
PE15   5005.114788 -19056.114169 -22079.449610    780.779342
PE18  29131.708748   5199.462826  -1224.702128  -1804.129557
PE19 -29188.708149   3213.612189  -3754.486486    428.362511
PE21 -14533.235018  -8006.417216 -24507.318319   -699.735817
PE24   -968.456153  24642.149035  16384.585104  -1227.988464
PE25  14395.696668   8269.396073  24517.151513   -553.663649
PE26 -20319.077057 -17595.438214  12390.400557 999999.999999
PE27    -23.727875 -24081.300358 -17194.357377   -165.587085
PE30  15161.183837 -25376.446760   1325.443370    -32.654401
PE31 -14374.417607  25880.490190   -149.897706   -488.110414
PE33 -17774.332435    368.273275  23673.380538   -462.518269
PE36  20128.043545  18403.216878 -11502.270617   -290.559186
PG01 -15956.382744  -2813.250831  20845.162997    509.998175
PG02  14702.461365  21279.473188  -5163.899976   -642.117074
PG03 -19657.988247   7571.733176  16010.891662    -14.333436
PG04 -25846.424161     84.057003  -6283.300073   -201.772482
PG05  13746.370584   7066.894532 -21772.499747    -61.174426
PG06   4703.579329  24983.200927   7651.330133    118.657783
PG07  -9642.622050  14011.592068 -19901.778962    278.424231
PG08 -25402.503299  -6532.453288  -5187.380518    -44.278698
PG09 -19444.396276   9022.590658 -15776.127666   -361.687776
PG10   9920.269400 -22873.648925   8841.765723   -246.829513
PG12  19690.452673  -4793.603519  16843.143695   -126.785523
PG13  20509.760575  13278.246743 -10755.462337    215.062732
PG14 -11028.420830  22559.902473   8562.310318    -38.803837
PG15  25999.663420   4109.976649  -5093.682050   -106.247780
PG16 -10753.286349 -10602.327277 -22095.003186   -424.653477
PG17  -6503.045909  13846.311833  22155.916757    534.106144
PG18   8688.499517 -15284.729547 -19883.338535    295.115549
PG19   3538.155095  15447.559099  21081.710261     79.656299
PG20   6470.044608  17271.669988 -19221.804212    518.107696
PG21 -18551.540595 -10717.331782  16739.044274    151.092046
PG22 -17273.997693   -372.425352  20292.841896   -464.093642
PG23  16953.314151 -20222.988710  -2593.136100     32.623697
PG24  18219.293415   6619.583824  18051.503871    267.311683
PG25  19535.056476 -15222.288323   8945.682017    241.064890
PG26   -222.955093 -20756.789655 -16465.272131    155.645174
PG27 -19086.038139 -12320.807704 -14249.583484   -219.549802
PG28  -5479.658373  21389.412778  15456.154668    462.222915
PG29  22616.278958  -4322.336665 -13333.748535   -441.023227
PG30  -2194.445646  22436.121688 -13786.134305   -491.607299
PG31  -5813.604964 -25134.990542   5039.568178   -150.308037
PG32   1441.246228 -15284.369188  21791.708374    -22.393643
PJ01 -36393.715682  17101.772788  -8027.379335    134.624784
PJ02 -24414.484031  32849.080631  -5297.211962     -0.108856
PJ03 -26762.168211  22106.041539  29047.890864     -6.357881
PJ07 -25403.946239  33662.847374    -36.851351      1.341136
PR01  23906.065856  -8909.881486     86.039407     88.169464
PR02  11992.457196 -13160.006667  18269.033033    500.168392
PR03  -6394.939373  -9314.380400  22908.297530     46.498217
PR04 -20821.928604   -193.355713  14762.620105    114.368177
PR05 -23873.868855   8885.522404  -1591.750118     82.525627
PR06 -10681.512919  13637.376783 -18753.516360    -15.913428
PR07   6985.426095   9041.655750 -22771.699032    -39.938854
PR08  20869.717600    148.031705 -14597.850371    -62.037453
PR09  -6013.358233  24506.723704  -3453.005282     23.741324
PR10   2103.066751  22208.120118  12435.191837    -77.078335
PR11   9674.497123   6714.791922  22637.421065     49.809185
PR12  11507.971654 -12994.847897  18709.735609    278.686070
PR13   6436.309985 -24273.914434   4453.416163    -63.592023
PR14  -2665.863282 -21474.878709 -13501.869179     71.055889
PR15  -9879.646702  -6146.569589 -22677.635567    100.179184
PR16 -11135.785877  14569.225631 -17817.179932    -25.037475
PR17 -14416.972955 -18561.930420  -9843.192514    475.203154
PR18 -20303.661454 -13791.082756   7046.487914     97.293002
PR19 -15925.902422  -2914.093166  19711.507263   -167.116083
PR20   -723.584362  12741.850122  22091.204984    -59.407079
PR21  15220.354427  18604.150256   8593.665313   -254.826984
PR22  20176.668588  13323.441386  -7997.068451   -145.381884
PR23  12007.400338  -2629.135182 -22354.457051    -20.106428
PR24    113.540517 -13505.267855 -21613.112039     67.093464
EOF
